OBJECT_NAME,OBJECT_ID,EPOCH,MEAN_MOTION,ECCENTRICITY,INCLINATION,RA_OF_ASC_NODE,ARG_OF_PERICENTER,MEAN_ANOMALY,EPHEMERIS_TYPE,CLASSIFICATION_TYPE,NORAD_CAT_ID,ELEMENT_SET_NO,REV_AT_EPOCH,BSTAR,MEAN_MOTION_DOT,MEAN_MOTION_DDOT
GPS BIIR-5  (PRN 22),2000-040A,2026-07-12T08:05:31.556256,2.00557796,.01205608,54.8488,214.1632,302.7049,140.2080,0,U,26407,999,19045,0,.94E-6,0
GPS BIIR-8  (PRN 16),2003-005A,2026-07-13T01:06:34.819776,2.00559112,.0148237,54.8792,213.9413,53.1636,317.9078,0,U,27663,999,17183,0,.85E-6,0
GPS BIIR-11 (PRN 19),2004-009A,2026-07-12T06:54:30.722112,2.00553765,.0117089,54.8090,274.6722,174.2150,161.8808,0,U,28190,999,16344,0,-.5E-7,0
GPS BIIR-13 (PRN 02),2004-045A,2026-07-12T17:37:07.406400,2.00556901,.0170137,55.1198,323.8675,316.9988,46.3688,0,U,28474,999,15894,0,-.87E-6,0
GPS BIIRM-1 (PRN 17),2005-038A,2026-07-12T23:34:14.085408,2.00563812,.0128187,54.8573,272.1354,296.3894,210.5892,0,U,28874,999,15235,0,.1E-7,0
INMARSAT 4-F2 (SOUTHPAN/PRN 122),2005-044A,2026-07-13T00:27:20.150208,1.00270656,.0002776,5.1282,43.6566,60.2901,337.2817,0,U,28899,999,7578,0,-.266E-5,0
GPS BIIRM-2 (PRN 31),2006-042A,2026-07-12T14:36:27.516384,2.00568349,.01071,54.7127,150.3297,55.0722,81.1518,0,U,29486,999,14490,0,.19E-6,0
GPS BIIRM-3 (PRN 12),2006-052A,2026-07-12T08:20:58.215264,2.00559500,.0084784,54.9325,213.0088,90.9947,270.0376,0,U,29601,999,14391,0,.95E-6,0
GPS BIIRM-4 (PRN 15),2007-047A,2026-07-12T03:43:01.695936,2.00553998,.01676861,54.1134,79.0366,87.9192,274.0481,0,U,32260,999,13731,0,-.41E-6,0
COSMOS 2433 (720),2007-052A,2026-07-13T04:39:26.028864,2.13104146,.0003429,65.5610,315.0591,203.4008,156.5874,0,U,32275,999,14561,0,-.64E-6,0
COSMOS 2432 (719),2007-052B,2026-07-13T00:43:11.129952,2.13103061,.0007426,65.5770,315.1929,322.6648,215.2459,0,U,32276,999,14563,0,-.64E-6,0
GPS BIIRM-5 (PRN 29),2007-062A,2026-07-11T10:44:22.765344,2.00561362,.00360308,55.0124,273.1765,167.2486,169.8682,0,U,32384,999,13599,0,-.3E-7,0
COSMOS 2434 (721),2007-065A,2026-07-11T14:49:34.112352,2.13101327,.0001261,64.3201,191.0916,325.8599,154.5630,0,U,32393,999,14429,0,.105E-5,0
COSMOS 2436 (723),2007-065C,2026-07-11T06:58:53.453280,2.13100061,.00173239,64.3285,191.1750,353.6446,8.2320,0,U,32395,999,14424,0,.11E-5,0
GPS BIIRM-6 (PRN 07),2008-012A,2026-07-11T13:34:01.360128,2.00572989,.02116471,54.4998,148.9509,248.1155,109.5888,0,U,32711,999,13424,0,.29E-6,0
GPS BIIRM-8 (PRN 05),2009-043A,2026-07-12T07:15:38.787264,2.00552847,.00537456,56.2260,26.4662,84.2562,95.9378,0,U,35752,999,12386,0,-.57E-6,0
COSMOS 2456 (730),2009-070A,2026-07-12T10:26:10.208832,2.13103684,.00036937,65.0257,70.1116,339.5842,205.9646,0,U,36111,999,12896,0,-.15E-6,0
COSMOS 2457 (733),2009-070B,2026-07-13T04:00:06.437088,2.13101157,.0004071,65.0119,69.9299,121.5525,32.6575,0,U,36112,999,12898,0,-.12E-6,0
COSMOS 2460 (732),2010-007C,2026-07-12T23:00:38.781216,2.13101655,.0001807,65.4044,313.5953,142.3803,214.2494,0,U,36402,999,12727,0,-.63E-6,0
GPS BIIF-1  (PRN 25),2010-022A,2026-07-11T08:58:04.450368,2.00563533,.0126647,54.2688,207.5878,66.1538,283.0764,0,U,36585,999,11807,0,.105E-5,0
BEIDOU-2 IGSO-1 (C06),2010-036A,2026-07-12T21:21:01.985184,1.00264571,.0059161,54.3059,162.7278,225.3005,330.1612,0,U,36828,999,5835,0,-.103E-5,0
BEIDOU-2 G4 (C04),2010-057A,2026-07-13T02:14:53.737728,1.00269840,.0005655,3.7077,68.7792,184.7307,231.1200,0,U,37210,999,5755,0,-.119E-5,0
BEIDOU-2 IGSO-2 (C07),2010-068A,2026-07-12T16:24:31.809600,1.00274134,.0057122,47.5013,271.5143,213.7768,159.7282,0,U,37256,999,5705,0,-.189E-5,0
BEIDOU-2 IGSO-3 (C08),2011-013A,2026-07-12T12:18:07.725024,1.00260977,.0035266,62.4426,39.9128,183.3051,358.3524,0,U,37384,999,5591,0,-.165E-5,0
GSAT-8 (GAGAN/PRN 127),2011-022A,2026-07-13T03:27:39.508128,1.00272453,.0002738,2.1957,81.5074,165.4430,151.0694,0,U,37605,999,5347,0,.8E-6,0
BEIDOU-2 IGSO-4 (C09),2011-038A,2026-07-12T21:52:21.720000,1.00279714,.0160342,54.6038,165.4445,231.4539,316.2369,0,U,37763,999,5490,0,-.17E-6,0
GSAT0101 (GALILEO-PFM),2011-060A,2026-07-11T11:38:20.173344,1.70475532,.00023353,56.9857,341.1030,61.2388,298.7767,0,U,37846,999,9153,0,-.86E-6,0
GSAT0102 (GALILEO-FM2),2011-060B,2026-07-12T00:05:18.617280,1.70475812,.00023056,56.9863,341.0894,10.3981,353.6194,0,U,37847,999,9155,0,-.88E-6,0
COSMOS 2476 (744),2011-064A,2026-07-12T13:14:19.300128,2.13103818,.0022175,65.2838,72.0157,236.1448,307.3113,0,U,37867,999,11430,0,-.14E-6,0
COSMOS 2477 (745),2011-064B,2026-07-12T02:48:29.071296,2.13103016,.00191483,65.2902,72.1100,236.9167,153.3861,0,U,37868,999,11429,0,-.16E-6,0
COSMOS 2475 (743),2011-064C,2026-07-12T09:49:32.135808,2.13101673,.00246801,65.2972,72.1216,250.7773,318.8539,0,U,37869,999,11430,0,-.15E-6,0
